[{"OBJECT_NAME":"STARLINK-35550","OBJECT_ID":"2025-247C","EPOCH":"2026-03-09T14:23:51.362592","MEAN_MOTION":15.30193104,"ECCENTRICITY":0.0001087,"INCLINATION":53.1601,"RA_OF_ASC_NODE":191.5541,"ARG_OF_PERICENTER":64.038,"MEAN_ANOMALY":296.0732,"EPHEMERIS_TYPE":0,"CLASSIFICATION_TYPE":"U","NORAD_CAT_ID":66267,"ELEMENT_SET_NO":999,"REV_AT_EPOCH":2102,"BSTAR":0.00092795,"MEAN_MOTION_DOT":0.00027219,"MEAN_MOTION_DDOT":0},{"OBJECT_NAME":"COSMOS 2251 DEB","OBJECT_ID":"1993-036BN","EPOCH":"2026-03-09T17:54:27.582912","MEAN_MOTION":15.31852549,"ECCENTRICITY":0.0043021,"INCLINATION":74.0291,"RA_OF_ASC_NODE":318.0178,"ARG_OF_PERICENTER":323.0874,"MEAN_ANOMALY":36.7369,"EPHEMERIS_TYPE":0,"CLASSIFICATION_TYPE":"U","NORAD_CAT_ID":33821,"ELEMENT_SET_NO":999,"REV_AT_EPOCH":76330,"BSTAR":0.0011195846,"MEAN_MOTION_DOT":0.00035571,"MEAN_MOTION_DDOT":0}]
